QIANFAN-9               
1 60387U 24140J   25299.43129542  .00000039  00000+0  42044-4 0  9991
2 60387  88.9736 304.2416 0015567 341.6268  18.4319 13.50974756 60943
QIANFAN-10              
1 60388U 24140K   25299.43548286  .00000027  00000+0  23492-4 0  9995
2 60388  88.9744 303.5837 0013313 318.1097  41.9035 13.50971343 61078
QIANFAN-11              
1 60389U 24140L   25299.47246294  .00000028  00000+0  24085-4 0  9994
2 60389  88.9671 304.2024 0013591 342.1998  17.8675 13.50972083 60735
QIANFAN-12              
1 60390U 24140M   25299.49298601  .00000042  00000+0  46908-4 0  9991
2 60390  88.9714 304.2230 0012716 351.3585   8.7346 13.50972460 60863
QIANFAN-13              
1 60391U 24140N   25299.46420007  .00000044  00000+0  49649-4 0  9993
2 60391  88.9727 304.3201 0012654 354.3238   5.7767 13.50972780 60887
QIANFAN-14              
1 60392U 24140P   25299.48879066  .00000042  00000+0  45723-4 0  9996
2 60392  88.9705 304.2252 0016279 352.0464   8.0427 13.50972991 60896
QIANFAN-15              
1 60393U 24140Q   25299.49701198  .00000047  00000+0  54531-4 0  9990
2 60393  88.9729 304.1697 0011636 340.3160  19.7540 13.50970952 60889
QIANFAN-16              
1 60394U 24140R   25299.48484219  .00000035  00000+0  36272-4 0  9991
2 60394  88.9732 304.2897 0014371 357.0476   3.0588 13.50971974 60794
